H1 CPF  1  SGF 2022  2 16  2  5471 larets    
H2  0304206 5557    27944 2022  2 15  0  0  0 2022  2 20 23 57  0   180 1 1  0 0 0
H9
10 0 59628  73080.00000  0  -1059104.662   -891123.572  -6924793.552
10 0 59628  73260.00000  0   -970864.684    467208.960  -6978350.572
10 0 59628  73440.00000  0   -812064.259   1805376.089  -6777326.712
10 0 59628  73620.00000  0   -589626.322   3073112.604  -6328911.351
10 0 59628  73800.00000  0   -314066.502   4222842.363  -5649266.000
10 0 59628  73980.00000  0       968.807   5211474.877  -4762994.053
10 0 59628  74160.00000  0    339325.371   6002059.326  -3702306.750
10 0 59628  74340.00000  0    683102.766   6565230.848  -2505895.348
10 0 59628  74520.00000  0   1013523.923   6880378.098  -1217537.768
10 0 59628  74700.00000  0   1311872.516   6936470.793    115517.814
10 0 59628  74880.00000  0   1560450.140   6732491.958   1444329.986
10 0 59628  75060.00000  0   1743498.697   6277445.606   2720117.507
10 0 59628  75240.00000  0   1848038.854   5589946.248   3896102.610
10 0 59628  75420.00000  0   1864582.752   4697411.571   4929265.992
10 0 59628  75600.00000  0   1787682.598   3634897.447   5781934.999
10 0 59628  75780.00000  0   1616288.406   2443647.837   6423130.976
10 0 59628  75960.00000  0   1353906.738   1169446.647   6829647.146
10 0 59628  76140.00000  0   1008554.735   -139168.265   6986834.138
10 0 59628  76320.00000  0    592513.827  -1432751.071   6889080.126
10 0 59628  76500.00000  0    121890.660  -2662800.985   6539991.410
10 0 59628  76680.00000  0   -384002.789  -3783567.663   5952261.447
10 0 59628  76860.00000  0   -903424.846  -4753744.361   5147229.517
10 0 59628  77040.00000  0  -1413110.332  -5537998.140   4154154.332
10 0 59628  77220.00000  0  -1889284.504  -6108300.220   3009202.063
10 0 59628  77400.00000  0  -2308740.070  -6444983.527   1754156.937
10 0 59628  77580.00000  0  -2649927.424  -6537473.304    434902.229
10 0 59628  77760.00000  0  -2894000.611  -6384653.014   -900277.030
10 0 59628  77940.00000  0  -3025764.840  -5994841.198  -2202498.844
10 0 59628  78120.00000  0  -3034477.749  -5385375.937  -3424117.376
10 0 59628  78300.00000  0  -2914460.200  -4581826.569  -4520501.763
10 0 59628  78480.00000  0  -2665484.143  -3616878.497  -5451676.986
10 0 59628  78660.00000  0  -2292925.138  -2528959.665  -6183763.763
10 0 59628  78840.00000  0  -1807676.648  -1360675.888  -6690175.053
10 0 59628  79020.00000  0  -1225829.012   -157123.825  -6952534.044
10 0 59628  79200.00000  0   -568132.768   1035846.380  -6961294.304
10 0 59628  79380.00000  0    140735.781   2173357.627  -6716063.872
10 0 59628  79560.00000  0    873085.195   3213174.368  -6225631.454
10 0 59628  79740.00000  0   1599275.407   4117268.978  -5507689.993
10 0 59628  79920.00000  0   2288904.580   4853230.795  -4588249.904
10 0 59628  80100.00000  0   2912075.421   5395470.589  -3500752.447
10 0 59628  80280.00000  0   3440690.687   5726168.552  -2284892.459
10 0 59628  80460.00000  0   3849721.845   5835917.125   -985182.159
10 0 59628  80640.00000  0   4118384.248   5724019.298    350699.234
10 0 59628  80820.00000  0   4231152.931   5398418.343   1673701.619
10 0 59628  81000.00000  0   4178563.967   4875258.893   2935260.424
10 0 59628  81180.00000  0   3957759.952   4178107.546   4089133.814
10 0 59628  81360.00000  0   3572747.051   3336866.787   5093132.117
10 0 59628  81540.00000  0   3034359.069   2386454.697   5910666.241
10 0 59628  81720.00000  0   2359929.266   1365315.094   6512053.469
10 0 59628  81900.00000  0   1572703.543    313837.387   6875542.957
10 0 59628  82080.00000  0    701016.208   -727243.935   6988046.833
10 0 59628  82260.00000  0   -222738.274  -1718415.497   6845572.055
10 0 59628  82440.00000  0  -1163305.935  -2622871.951   6453342.148
10 0 59628  82620.00000  0  -2083904.705  -3407870.218   5825607.434
10 0 59628  82800.00000  0  -2947642.706  -4045911.590   4985161.164
10 0 59628  82980.00000  0  -3718995.206  -4515723.439   3962563.983
10 0 59628  83160.00000  0  -4365277.479  -4802995.728   2795072.750
10 0 59628  83340.00000  0  -4858041.816  -4900840.342   1525308.979
10 0 59628  83520.00000  0  -5174341.999  -4809950.606    199706.297
10 0 59628  83700.00000  0  -5297798.419  -4538444.108  -1133209.832
10 0 59628  83880.00000  0  -5219404.490  -4101392.948  -2424639.995
10 0 59628  84060.00000  0  -4938024.026  -3520059.943  -3627343.622
10 0 59628  84240.00000  0  -4460555.857  -2820886.426  -4697395.446
10 0 59628  84420.00000  0  -3801766.165  -2034290.253  -5595795.107
10 0 59628  84600.00000  0  -2983799.922  -1193335.170  -6289869.025
10 0 59628  84780.00000  0  -2035400.983   -332335.756  -6754418.925
10 0 59628  84960.00000  0   -990875.880    514538.833  -6972586.532
10 0 59628  85140.00000  0    111151.079   1314605.185  -6936420.526
10 0 59628  85320.00000  0   1229149.247   2037909.625  -6647149.670
10 0 59628  85500.00000  0   2320226.865   2658340.856  -6115159.423
10 0 59628  85680.00000  0   3341766.563   3154578.553  -5359657.766
10 0 59628  85860.00000  0   4253091.249   3510842.344  -4408034.306
10 0 59628  86040.00000  0   5017108.046   3717418.227  -3294923.104
10 0 59628  86220.00000  0   5601861.196   3770934.232  -2060976.640
10 0 59629      0.00000  0   5981915.435   3674369.471   -751387.289
10 0 59629    180.00000  0   6139499.823   3436788.089    585792.609
10 0 59629    360.00000  0   6065346.819   3072806.962   1901461.572
10 0 59629    540.00000  0   5759175.854   2601823.754   3147330.225
10 0 59629    720.00000  0   5229794.851   2047048.223   4277746.965
10 0 59629    900.00000  0   4494813.867   1434387.740   5251400.989
10 0 59629   1080.00000  0   3580000.745    791250.957   6032828.078
10 0 59629   1260.00000  0   2518312.182    145330.469   6593673.363
10 0 59629   1440.00000  0   1348655.668   -476576.173   6913664.187
10 0 59629   1620.00000  0    114441.245  -1049661.113   6981292.269
10 0 59629   1800.00000  0  -1138034.840  -1552081.759   6794188.595
10 0 59629   1980.00000  0  -2361313.622  -1965782.685   6359186.124
10 0 59629   2160.00000  0  -3508548.473  -2277136.484   5692081.045
10 0 59629   2340.00000  0  -4535292.243  -2477392.304   4817103.689
10 0 59629   2520.00000  0  -5401237.123  -2562917.598   3766082.660
10 0 59629   2700.00000  0  -6071827.974  -2535215.741   2577324.607
10 0 59629   2880.00000  0  -6519686.862  -2400721.266   1294244.944
10 0 59629   3060.00000  0  -6725782.736  -2170381.477    -36220.061
10 0 59629   3240.00000  0  -6680272.307  -1859034.879  -1365359.504
10 0 59629   3420.00000  0  -6382965.652  -1484619.023  -2644514.916
10 0 59629   3600.00000  0  -5843387.366  -1067251.777  -3826902.944
10 0 59629   3780.00000  0  -5080437.580   -628234.290  -4869352.338
10 0 59629   3960.00000  0  -4121674.476   -189025.806  -5733883.519
10 0 59629   4140.00000  0  -3002257.350    229756.554  -6389068.937
10 0 59629   4320.00000  0  -1763609.068    609264.982  -6811128.813
10 0 59629   4500.00000  0   -451861.690    933235.033  -6984743.699
10 0 59629   4680.00000  0    883856.819   1188659.962  -6903570.766
10 0 59629   4860.00000  0   2193238.716   1366302.952  -6570466.865
10 0 59629   5040.00000  0   3426675.153   1461033.388  -5997410.350
10 0 59629   5220.00000  0   4537131.483   1471974.007  -5205108.778
10 0 59629   5400.00000  0   5481957.355   1402453.436  -4222306.198
10 0 59629   5580.00000  0   6224572.142   1259765.948  -3084791.998
10 0 59629   5760.00000  0   6735947.676   1054743.806  -1834130.227
10 0 59629   5940.00000  0   6995819.387    801159.722   -516143.717
10 0 59629   6120.00000  0   6993551.077    514984.639    820796.492
10 0 59629   6300.00000  0   6728601.465    213540.748   2127596.902
10 0 59629   6480.00000  0   6210568.075    -85408.691   3356304.056
10 0 59629   6660.00000  0   5458797.844   -364582.081   4461914.379
10 0 59629   6840.00000  0   4501597.153   -608062.995   5404044.489
10 0 59629   7020.00000  0   3375089.423   -802101.470   6148399.785
10 0 59629   7200.00000  0   2121782.195   -935792.568   6667984.990
10 0 59629   7380.00000  0    788920.206  -1001606.021   6944031.576
10 0 59629   7560.00000  0   -573314.987   -995748.418   6966625.570
10 0 59629   7740.00000  0  -1913689.494   -918344.476   6735023.165
10 0 59629   7920.00000  0  -3181821.857   -773432.609   6257661.666
10 0 59629   8100.00000  0  -4330057.391   -568774.655   5551873.033
10 0 59629   8280.00000  0  -5315263.742   -315488.400   4643298.001
10 0 59629   8460.00000  0  -6100480.430    -27514.757   3564999.096
10 0 59629   8640.00000  0  -6656351.895    279061.456   2356294.226
10 0 59629   8820.00000  0  -6962285.533    586810.186   1061344.114
10 0 59629   9000.00000  0  -7007274.907    877835.889   -272468.754
10 0 59629   9180.00000  0  -6790334.617   1134694.662  -1596306.902
10 0 59629   9360.00000  0  -6320518.226   1341300.654  -2861708.079
10 0 59629   9540.00000  0  -5616525.151   1483776.270  -4022399.895
10 0 59629   9720.00000  0  -4705906.309   1551198.902  -5036019.710
10 0 59629   9900.00000  0  -3623921.917   1536205.758  -5865656.061
10 0 59629  10080.00000  0  -2412120.861   1435430.567  -6481160.846
10 0 59629  10260.00000  0  -1116709.960   1249754.675  -6860199.197
10 0 59629  10440.00000  0    213220.346    984365.658  -6989009.344
10 0 59629  10620.00000  0   1527540.495    648622.178  -6862867.024
10 0 59629  10800.00000  0   2776950.070    255729.246  -6486258.334
10 0 59629  10980.00000  0   3914815.663   -177769.499  -5872741.815
10 0 59629  11160.00000  0   4898914.036   -632666.293  -5044502.670
10 0 59629  11340.00000  0   5693028.006  -1087909.932  -4031608.451
10 0 59629  11520.00000  0   6268337.860  -1521544.347  -2870967.030
10 0 59629  11700.00000  0   6604539.316  -1911726.094  -1605008.587
10 0 59629  11880.00000  0   6690630.406  -2237773.875   -280130.716
10 0 59629  12060.00000  0   6525319.151  -2481194.769   1055034.998
99
